OBJECT_NAME,OBJECT_ID,EPOCH,MEAN_MOTION,ECCENTRICITY,INCLINATION,RA_OF_ASC_NODE,ARG_OF_PERICENTER,MEAN_ANOMALY,EPHEMERIS_TYPE,CLASSIFICATION_TYPE,NORAD_CAT_ID,ELEMENT_SET_NO,REV_AT_EPOCH,BSTAR,MEAN_MOTION_DOT,MEAN_MOTION_DDOT
SIRION PATHFINDER-2,2018-099B,2026-05-16T22:16:44.093568,15.14241736,.00100259,97.4274,186.7319,55.9943,304.2240,0,U,43759,999,40789,.19527064E-3,.3508E-4,0
CORVUS BC4,2018-099K,2026-05-16T21:25:33.176640,15.12219612,.00100522,97.4089,180.7917,107.2890,252.9442,0,U,43767,999,40767,.17053102E-3,.2885E-4,0
M2 PATHFINDER,2020-037E,2026-05-16T15:45:41.833152,15.04530356,.00099351,97.8163,327.5363,257.6999,102.3114,0,U,45727,999,32075,.10126519E-3,.1356E-4,0
NETSAT-4,2020-068U,2026-05-16T17:50:07.145664,15.42756823,.00075303,97.8609,142.4855,80.4936,279.7161,0,U,46504,999,31092,.35494131E-3,.15447E-3,0
NETSAT-3,2020-068V,2026-05-16T22:04:07.450752,15.41534678,.00075328,97.8658,140.9331,92.8958,267.3149,0,U,46505,999,31086,.34740952E-3,.1451E-3,0
NETSAT-1,2020-068W,2026-05-16T19:54:12.701952,15.33827700,.00069915,97.8747,135.5287,112.6519,247.5463,0,U,46506,999,31049,.32241152E-3,.10472E-3,0
NETSAT-2,2020-068X,2026-05-16T18:12:20.386656,15.44585399,.00062834,97.8624,142.2898,102.6822,257.5128,0,U,46507,999,31088,.42428633E-3,.19665E-3,0
GREENCUBE (IO-117),2022-080E,2026-05-16T10:25:38.277120,6.42583311,.00088168,70.1434,309.2922,296.9744,63.0015,0,U,53109,999,9002,0,-.3E-7,0
SITRO-AIS 5 (KATYS),2023-091L,2026-05-16T22:04:18.663744,15.28684472,.00110884,97.5079,200.5375,204.9731,155.0973,0,U,57176,999,15956,.36217884E-3,.10046E-3,0
SITRO-AIS 6 (CHIRKIN),2023-091AC,2026-05-16T23:01:04.431648,15.25296650,.00112362,97.5085,199.8584,208.2686,151.7944,0,U,57192,999,15952,.30617762E-3,.7649E-4,0
SITRO-AIS 8 (ANOKHIN),2023-091AD,2026-05-16T22:11:24.813600,15.31228663,.00104262,97.5074,202.0074,200.2694,159.8134,0,U,57193,999,15966,.4012494E-3,.1205E-3,0
SITRO-AIS 7 (FARTUSHNIY),2023-091AE,2026-05-16T22:56:37.866048,15.25000219,.00110637,97.5083,199.6960,209.3288,150.7330,0,U,57194,999,15951,.29099724E-3,.72E-4,0
SITRO-AIS 10 (BURDAEV),2023-091AK,2026-05-16T22:53:36.923712,15.37352787,.0007395,97.5098,206.7783,172.7714,187.3638,0,U,57199,999,15996,.44142718E-3,.16104E-3,0
SITRO-AIS 9 (SHCHUKIN),2023-091AM,2026-05-16T21:44:09.524256,15.36897003,.00076276,97.5096,206.4826,173.6483,186.4859,0,U,57201,999,15994,.43318696E-3,.1557E-3,0
SITRO-AIS 12 (SMIRENNIY),2023-091AQ,2026-05-16T23:12:48.688416,15.37184920,.00074264,97.5108,206.9933,167.4886,192.6544,0,U,57204,999,15997,.43660347E-3,.1584E-3,0
SITRO-AIS 11 (SHEFFER),2023-091AU,2026-05-16T22:10:24.012192,15.37577334,.00073302,97.5106,207.1767,167.2798,192.8633,0,U,57208,999,15998,.45902386E-3,.16873E-3,0
SITRO-AIS 25,2024-039R,2026-05-16T22:50:09.117888,14.93284274,.01473928,95.3920,213.6308,77.6051,284.1626,0,U,59066,999,12006,.30376377E-3,.3905E-4,0
SITRO-AIS 26,2024-039S,2026-05-16T22:46:03.961344,14.93086548,.01476958,95.3921,213.5329,78.1499,283.6247,0,U,59067,999,12005,.29724578E-3,.3803E-4,0
SITRO-AIS 27,2024-039T,2026-05-16T22:15:43.612704,14.93498463,.01466896,95.3924,213.7758,76.8963,284.8587,0,U,59068,999,12007,.26676894E-3,.3439E-4,0
SITRO-AIS 28,2024-039U,2026-05-16T23:20:45.649248,14.93535605,.01467582,95.3927,213.8522,76.6149,285.1389,0,U,59071,999,12008,.29135863E-3,.3764E-4,0
GRBBETA,2024-128C,2026-05-16T00:41:01.971456,15.06357396,.00450044,61.9902,329.0722,128.0351,232.4817,0,U,60237,999,10142,.19902973E-3,.2788E-4,0
OOV-CUBE (TUBSAT-30),2024-128F,2026-05-16T01:09:39.079008,15.02598646,.00486163,61.9948,337.6259,126.7646,233.7923,0,U,60240,999,10128,.12231553E-3,.146E-4,0
ROBUSTA-3A (MEDITERRANEE),2024-128J,2026-05-16T21:47:50.296992,15.11147682,.00455617,61.9865,318.8157,122.1587,238.3940,0,U,60243,999,10169,.39050117E-3,.6522E-4,0
LASARSAT,2024-247Q,2026-05-16T21:11:30.289344,15.44323500,.00051877,44.9753,77.8428,149.7413,210.3776,0,U,62391,999,7847,.55244067E-3,.25764E-3,0
CROCUBE,2024-247T,2026-05-16T20:26:14.845344,15.45929311,.0004879,44.9724,75.8233,152.2127,207.9024,0,U,62394,999,7849,.59218892E-3,.29231E-3,0
FORESAIL-1 PRIME,2025-276DS,2026-05-16T23:02:39.969312,15.18391943,.00022017,97.4209,210.8082,173.4339,186.6924,0,U,66778,999,2566,.1750861E-3,.3533E-4,0
KNACKSAT-2,1998-067XZ,2026-05-16T20:47:59.943264,15.57110676,.00123704,51.6291,91.6675,83.7858,276.4542,0,U,67683,999,1539,.48285863E-3,.35455E-3,0
