SIRION PATHFINDER-2     
1 43759U 18099B   26136.92828812  .00003508  00000+0  19527-3 0  9995
2 43759  97.4274 186.7319 0010025  55.9943 304.2240 15.14241736407898
CORVUS BC4              
1 43767U 18099K   26136.89274510  .00002885  00000+0  17053-3 0  9999
2 43767  97.4089 180.7917 0010052 107.2890 252.9442 15.12219612407676
M2 PATHFINDER           
1 45727U 20037E   26136.65673418  .00001356  00000+0  10127-3 0  9993
2 45727  97.8163 327.5363 0009935 257.6999 102.3114 15.04530356320754
NETSAT-4                
1 46504U 20068U   26136.74313826  .00015447  00000+0  35494-3 0  9995
2 46504  97.8609 142.4855 0007530  80.4936 279.7161 15.42756823310925
NETSAT-3                
1 46505U 20068V   26136.91953068  .00014510  00000+0  34741-3 0  9997
2 46505  97.8658 140.9331 0007532  92.8958 267.3149 15.41534678310868
NETSAT-1                
1 46506U 20068W   26136.82931368  .00010472  00000+0  32241-3 0  9993
2 46506  97.8747 135.5287 0006991 112.6519 247.5463 15.33827700310490
NETSAT-2                
1 46507U 20068X   26136.75856929  .00019665  00000+0  42429-3 0  9997
2 46507  97.8624 142.2898 0006283 102.6822 257.5128 15.44585399310887
GREENCUBE (IO-117)      
1 53109U 22080E   26136.43447080 -.00000003  00000+0  00000+0 0  9990
2 53109  70.1434 309.2922 0008816 296.9744  63.0015  6.42583311 90029
SITRO-AIS 5 (KATYS)     
1 57176U 23091L   26136.91966046  .00010046  00000+0  36218-3 0  9993
2 57176  97.5079 200.5375 0011088 204.9731 155.0973 15.28684472159564
SITRO-AIS 6 (CHIRKIN)   
1 57192U 23091AC  26136.95907907  .00007649  00000+0  30618-3 0  9999
2 57192  97.5085 199.8584 0011236 208.2686 151.7944 15.25296650159523
SITRO-AIS 8 (ANOKHIN)   
1 57193U 23091AD  26136.92459275  .00012050  00000+0  40125-3 0  9993
2 57193  97.5074 202.0074 0010426 200.2694 159.8134 15.31228663159665
SITRO-AIS 7 (FARTUSHNIY)
1 57194U 23091AE  26136.95599382  .00007200  00000+0  29100-3 0  9992
2 57194  97.5083 199.6960 0011063 209.3288 150.7330 15.25000219159518
SITRO-AIS 10 (BURDAEV)  
1 57199U 23091AK  26136.95389958  .00016104  00000+0  44143-3 0  9990
2 57199  97.5098 206.7783 0007395 172.7714 187.3638 15.37352787159961
SITRO-AIS 9 (SHCHUKIN)  
1 57201U 23091AM  26136.90566579  .00015570  00000+0  43319-3 0  9995
2 57201  97.5096 206.4826 0007627 173.6483 186.4859 15.36897003159946
SITRO-AIS 12 (SMIRENNIY)
1 57204U 23091AQ  26136.96723019  .00015840  00000+0  43660-3 0  9997
2 57204  97.5108 206.9933 0007426 167.4886 192.6544 15.37184920159973
SITRO-AIS 11 (SHEFFER)  
1 57208U 23091AU  26136.92388903  .00016873  00000+0  45902-3 0  9994
2 57208  97.5106 207.1767 0007330 167.2798 192.8633 15.37577334159984
SITRO-AIS 25            
1 59066U 24039R   26136.95149442  .00003905  00000+0  30376-3 0  9998
2 59066  95.3920 213.6308 0147392  77.6051 284.1626 14.93284274120063
SITRO-AIS 26            
1 59067U 24039S   26136.94865696  .00003803  00000+0  29725-3 0  9997
2 59067  95.3921 213.5329 0147695  78.1499 283.6247 14.93086548120051
SITRO-AIS 27            
1 59068U 24039T   26136.92758811  .00003439  00000+0  26677-3 0  9994
2 59068  95.3924 213.7758 0146689  76.8963 284.8587 14.93498463120071
SITRO-AIS 28            
1 59071U 24039U   26136.97275057  .00003764  00000+0  29136-3 0  9993
2 59071  95.3927 213.8522 0146758  76.6149 285.1389 14.93535605120084
GRBBETA                 
1 60237U 24128C   26136.02849504  .00002788  00000+0  19903-3 0  9994
2 60237  61.9902 329.0722 0045004 128.0351 232.4817 15.06357396101425
OOV-CUBE (TUBSAT-30)    
1 60240U 24128F   26136.04836897  .00001460  00000+0  12232-3 0  9995
2 60240  61.9948 337.6259 0048616 126.7646 233.7923 15.02598646101280
ROBUSTA-3A (MEDITERRAN*)
1 60243U 24128J   26136.90822103  .00006522  00000+0  39050-3 0  9999
2 60243  61.9865 318.8157 0045561 122.1587 238.3940 15.11147682101694
LASARSAT                
1 62391U 24247Q   26136.88298946  .00025764  00000+0  55244-3 0  9998
2 62391  44.9753  77.8428 0005187 149.7413 210.3776 15.44323500 78470
CROCUBE                 
1 62394U 24247T   26136.85156071  .00029231  00000+0  59219-3 0  9999
2 62394  44.9724  75.8233 0004879 152.2127 207.9024 15.45929311 78494
FORESAIL-1 PRIME        
1 66778U 25276DS  26136.96018483  .00003533  00000+0  17509-3 0  9991
2 66778  97.4209 210.8082 0002201 173.4339 186.6924 15.18391943 25662
KNACKSAT-2              
1 67683U 98067XZ  26136.86666601  .00035455  00000+0  48286-3 0  9999
2 67683  51.6291  91.6675 0012370  83.7858 276.4542 15.57110676 15399
